OBJECT_NAME,OBJECT_ID,EPOCH,MEAN_MOTION,ECCENTRICITY,INCLINATION,RA_OF_ASC_NODE,ARG_OF_PERICENTER,MEAN_ANOMALY,EPHEMERIS_TYPE,CLASSIFICATION_TYPE,NORAD_CAT_ID,ELEMENT_SET_NO,REV_AT_EPOCH,BSTAR,MEAN_MOTION_DOT,MEAN_MOTION_DDOT
SL-16 R/B,1996-051B,2026-06-05T06:36:24.818400,14.12442026,.0014444,70.7634,349.8600,355.1089,4.9887,0,U,24298,999,53401,.98873E-4,.133E-5,0
ORBVIEW 2 (SEASTAR),1997-037A,2026-06-05T10:47:49.678656,14.35547281,.0002796,98.8680,323.1444,140.4652,219.6737,0,U,24883,999,52106,.11358E-3,.28E-5,0
SL-16 R/B,1998-043G,2026-06-05T13:48:53.873856,14.26066591,.001081,98.8359,110.6353,116.7188,243.5099,0,U,25400,999,45151,.46311E-4,.65E-6,0
SL-16 R/B,1998-045B,2026-06-05T07:10:36.103008,14.16203822,.0009546,71.0121,357.3319,255.6711,104.3353,0,U,25407,999,43950,.11869E-3,.187E-5,0
ISS (ZARYA),1998-067A,2026-06-05T18:33:21.960576,15.49621928,.0007059,51.6332,356.5983,137.5864,222.5671,0,U,25544,999,56998,.17151E-3,.922E-4,0
CZ-4B R/B,1999-025C,2026-06-05T12:13:13.502784,14.18281470,.0038262,98.6489,198.6411,92.3059,27.3211,0,U,25732,999,40061,.46288E-4,.53E-6,0
OKEAN-O,1999-039A,2026-06-05T10:51:02.837088,14.80452522,.000188,97.9320,215.3842,81.1065,279.0360,0,U,25860,999,44737,.92554E-4,.656E-5,0
SL-16 R/B,1999-039B,2026-06-05T10:00:54.859104,14.81833180,.0014178,97.9842,215.3132,337.8996,22.1603,0,U,25861,999,44985,.76091E-4,.548E-5,0
DELTA 2 R/B,1999-041E,2026-06-05T17:01:04.094688,14.11994346,.0501036,51.7659,309.6462,248.0872,106.6086,0,U,25876,999,37546,.14823E-3,.687E-5,0
HELIOS 1B,1999-064A,2026-06-05T11:28:09.974208,14.87974546,.0002289,98.1623,61.2785,107.8860,252.2605,0,U,25977,999,69831,.18385E-3,.1628E-4,0
TERRA,1999-068A,2026-06-05T18:53:06.088992,14.61093912,.0000845,97.9461,206.7846,250.8872,172.8578,0,U,25994,999,40794,.94866E-4,.422E-5,0
SL-16 R/B,2000-006B,2026-06-05T14:52:28.510752,14.15837272,.0014967,71.0034,272.9467,41.5061,318.7196,0,U,26070,999,36100,-.29822E-4,-.106E-5,0
TITAN 4B R/B,2000-047B,2026-06-05T19:13:17.143104,15.10129951,.0045446,67.9871,152.6216,298.5740,61.0839,0,U,26474,999,40621,.22387E-3,.361E-4,0
ENVISAT,2002-009A,2026-06-05T15:49:19.497216,14.39061995,.000135,98.3829,108.2352,91.9876,80.9361,0,U,27386,999,27182,.47268E-4,.103E-5,0
IDEFIX & ARIANE 42P R/B,2002-021B,2026-06-05T14:14:14.430048,14.31076536,.001067,98.5941,94.2022,291.7791,68.2256,0,U,27422,999,25659,.11022E-3,.247E-5,0
AQUA,2002-022A,2026-06-05T19:56:02.302080,14.62140448,.0001548,98.4271,125.8871,55.8346,2.2008,0,U,27424,999,28161,.18577E-3,.885E-5,0
CZ-4B R/B,2002-024C,2026-06-05T01:48:47.901888,14.14562369,.0050952,98.8704,208.9736,133.9745,293.4448,0,U,27432,999,24159,.49124E-4,.52E-6,0
MIDORI II (ADEOS-II),2002-056A,2026-06-05T14:06:24.094368,14.29343082,.0002224,98.7873,115.7496,93.7779,266.3657,0,U,27597,999,22285,.13578E-3,.3E-5,0
H-2A R/B,2002-056E,2026-06-05T15:48:42.041952,14.33816935,.006883,98.3307,113.7537,259.4331,274.1408,0,U,27601,999,22671,.94026E-4,.226E-5,0
CZ-4B R/B,2003-049C,2026-06-05T11:20:34.914048,14.55092077,.0047418,98.6895,154.8528,325.0742,34.7345,0,U,28059,999,19936,.94451E-4,.361E-5,0
CZ-2C R/B,2004-012C,2026-06-04T17:30:35.057952,15.76591401,.0008803,97.7083,229.9670,340.1675,19.9247,0,U,28222,999,21793,.59019E-3,.94695E-3,0
SL-16 R/B,2004-021B,2026-06-05T01:40:08.887584,14.14613082,.00074724,71.0024,49.1200,268.4538,91.5729,0,U,28353,999,13519,-.40409399E-4,-.125E-5,0
CZ-4B R/B,2004-035C,2026-06-05T10:19:02.339616,15.30444803,.0031426,97.3366,189.6370,20.0933,340.1537,0,U,28415,999,19332,.2882E-3,.8537E-4,0
CZ-2C R/B,2004-046B,2026-06-05T08:12:09.010080,14.27023850,.01381,98.1953,65.8617,255.5493,103.0331,0,U,28480,999,12100,.50693E-4,.94E-6,0
ARIANE 5 R/B,2004-049H,2026-06-05T11:26:43.321056,14.85431987,.0085102,98.2714,328.2782,66.9677,294.0483,0,U,28499,999,15882,.10357E-3,.888E-5,0
CZ-2D R/B,2005-024B,2026-06-05T07:00:54.959328,15.68231466,.0005312,97.3496,175.1383,79.1543,281.0316,0,U,28738,999,15347,.46636E-3,.52198E-3,0
ALOS (DAICHI),2006-002A,2026-06-05T14:05:45.184128,14.70026339,.0001872,98.1318,112.1914,64.3373,295.8026,0,U,28931,999,8639,.21186E-3,.1221E-4,0
H-2A R/B,2006-002B,2026-06-05T09:17:25.808928,15.17909872,.0049776,98.2558,311.1509,303.3865,56.2609,0,U,28932,999,10773,.31189E-3,.6448E-4,0
RESURS-DK 1,2006-021A,2026-06-05T08:02:14.335296,15.13161587,.000616,69.9334,10.2328,301.8754,58.1812,0,U,29228,999,10078,.1405E-3,.239E-4,0
CZ-4B R/B,2006-046C,2026-06-05T09:15:16.805088,15.17693281,.003163,97.5456,201.0298,325.6747,34.2442,0,U,29507,999,7334,.21303E-3,.4277E-4,0
CZ-2C R/B,2007-010B,2026-06-05T13:50:36.930048,14.20273482,.0059677,98.4090,265.4964,39.6770,320.8751,0,U,31114,999,99219,.69163E-4,.11E-5,0
